KORSAT-2                
1 62377U 24247A   26068.41070335  .00005163  00000+0  43498-3 0  9994
2 62377  45.4085 225.0391 0009773  57.7708 302.4117 14.99271316 66592
STARLINK-36178          
1 67025U 25293Y   26068.78688346 -.00002408  00000+0 -19395-3 0  9998
2 67025  70.0026  94.1594 0003136 269.3092  90.7708 14.98360249 14904
